O3B MPOWER F1           
1 54755U 22174A   23332.48288734 -.00000023  00000+0  00000+0 0  9993
2 54755   0.0545  17.9850 0005719 243.8920 152.8416  5.00118372 18746
